{"type": "FeatureCollection", "features": [ {"type": "Feature", "properties": {"norad_id": 35208, "name": "FENGYUN 1C DEB", "group": "fengyun-1c-debris", "lat": -49.646560571735826, "lon": -171.0883121532661, "alt_km": 929.1242759758734, "timestamp": "2025-12-26T17:24:55.007200+00:00", "meta": {"OBJECT_NAME": "FENGYUN 1C DEB", "OBJECT_ID": "1999-025DPQ", "EPOCH": "2025-12-12T19:29:45.564288", "MEAN_MOTION": 13.99657071, "ECCENTRICITY": 0.01013151, "INCLINATION": 98.903, "RA_OF_ASC_NODE": 6.0094, "ARG_OF_PERICENTER": 156.4473, "MEAN_ANOMALY": 204.1379, "EPHEMERIS_TYPE": 0, "CLASSIFICATION_TYPE": "U", "NORAD_CAT_ID": 35208, "ELEMENT_SET_NO": 999, "REV_AT_EPOCH": 90564, "BSTAR": 0.0013122763, "MEAN_MOTION_DOT": 1.963e-05, "MEAN_MOTION_DDOT": 0}, "tle": {"line1": "1 35208U 99025DPQ 25346.81233292  .00001963  00000+0  13123-2 0  9993", "line2": "2 35208  98.9030   6.0094 0101315 156.4473 204.1379 13.99657071905647"}}, "geometry": {"type": "Point", "coordinates": [-171.0883121532661, -49.646560571735826]}}, {"type": "Feature", "properties": {"norad_id": 35210, "name": "FENGYUN 1C DEB", "group": "fengyun-1c-debris", "lat": 75.94237847473606, "lon": -34.55169844405501, "alt_km": 788.8568783585042, "timestamp": "2025-12-26T17:24:55.007210+00:00", "meta": {"OBJECT_NAME": "FENGYUN 1C DEB", "OBJECT_ID": "1999-025DPS", "EPOCH": "2025-12-21T12:08:09.731616", "MEAN_MOTION": 14.33731534, "ECCENTRICITY": 0.00494304, "INCLINATION": 99.0977, "RA_OF_ASC_NODE": 359.7491, "ARG_OF_PERICENTER": 213.3561, "MEAN_ANOMALY": 298.6151, "EPHEMERIS_TYPE": 0, "CLASSIFICATION_TYPE": "U", "NORAD_CAT_ID": 35210, "ELEMENT_SET_NO": 999, "REV_AT_EPOCH": 90248, "BSTAR": 0.0016885673, "MEAN_MOTION_DOT": 4.708e-05, "MEAN_MOTION_DDOT": 0}, "tle": {"line1": "1 35210U 99025DPS 25355.50566819  .00004708  00000+0  16886-2 0  9995", "line2": "2 35210  99.0977 359.7491 0049430 213.3561 298.6151 14.33731534902482"}}, "geometry": {"type": "Point", "coordinates": [-34.55169844405501, 75.94237847473606]}}, {"type": "Feature", "properties": {"norad_id": 35217, "name": "FENGYUN 1C DEB", "group": "fengyun-1c-debris", "lat": 75.76369977475073, "lon": -137.25520680387748, "alt_km": 1260.2467074013803, "timestamp": "2025-12-26T17:24:55.007221+00:00", "meta": {"OBJECT_NAME": "FENGYUN 1C DEB", "OBJECT_ID": "1999-025DPZ", "EPOCH": "2025-12-25T12:41:47.728032", "MEAN_MOTION": 13.57557246, "ECCENTRICITY": 0.030057, "INCLINATION": 101.8763, "RA_OF_ASC_NODE": 277.3373, "ARG_OF_PERICENTER": 266.76, "MEAN_ANOMALY": 89.9107, "EPHEMERIS_TYPE": 0, "CLASSIFICATION_TYPE": "U", "NORAD_CAT_ID": 35217, "ELEMENT_SET_NO": 999, "REV_AT_EPOCH": 61393, "BSTAR": 0.0020974, "MEAN_MOTION_DOT": 1.956e-05, "MEAN_MOTION_DDOT": 0}, "tle": {"line1": "1 35217U 99025DPZ 25359.52902463  .00001956  00000+0  20974-2 0  9992", "line2": "2 35217 101.8763 277.3373 0300570 266.7600  89.9107 13.57557246613931"}}, "geometry": {"type": "Point", "coordinates": [-137.25520680387748, 75.76369977475073]}}, {"type": "Feature", "properties": {"norad_id": 35220, "name": "FENGYUN 1C DEB", "group": "fengyun-1c-debris", "lat": -68.98194422757707, "lon": 95.5441624070979, "alt_km": 794.3843022345127, "timestamp": "2025-12-26T17:24:55.007231+00:00", "meta": {"OBJECT_NAME": "FENGYUN 1C DEB", "OBJECT_ID": "1999-025DQC", "EPOCH": "2025-12-23T03:39:41.085504", "MEAN_MOTION": 14.226262, "ECCENTRICITY": 0.00439954, "INCLINATION": 99.0276, "RA_OF_ASC_NODE": 67.4432, "ARG_OF_PERICENTER": 276.7268, "MEAN_ANOMALY": 82.8903, "EPHEMERIS_TYPE": 0, "CLASSIFICATION_TYPE": "U", "NORAD_CAT_ID": 35220, "ELEMENT_SET_NO": 999, "REV_AT_EPOCH": 63331, "BSTAR": 0.0016717154, "MEAN_MOTION_DOT": 3.73e-05, "MEAN_MOTION_DDOT": 0}, "tle": {"line1": "1 35220U 99025DQC 25357.15255886  .00003730  00000+0  16717-2 0  9995", "line2": "2 35220  99.0276  67.4432 0043995 276.7268  82.8903 14.22626200633312"}}, "geometry": {"type": "Point", "coordinates": [95.5441624070979, -68.98194422757707]}}, {"type": "Feature", "properties": {"norad_id": 35223, "name": "FENGYUN 1C DEB", "group": "fengyun-1c-debris", "lat": -19.86506874575992, "lon": -11.657313382605565, "alt_km": 558.3918551052275, "timestamp": "2025-12-26T17:24:55.007241+00:00", "meta": {"OBJECT_NAME": "FENGYUN 1C DEB", "OBJECT_ID": "1999-025DQF", "EPOCH": "2025-12-25T22:09:14.546592", "MEAN_MOTION": 14.89205778, "ECCENTRICITY": 0.0127006, "INCLINATION": 98.9742, "RA_OF_ASC_NODE": 344.1602, "ARG_OF_PERICENTER": 284.0839, "MEAN_ANOMALY": 74.6286, "EPHEMERIS_TYPE": 0, "CLASSIFICATION_TYPE": "U", "NORAD_CAT_ID": 35223, "ELEMENT_SET_NO": 999, "REV_AT_EPOCH": 94078, "BSTAR": 0.00082018, "MEAN_MOTION_DOT": 8.95e-05, "MEAN_MOTION_DDOT": 0}, "tle": {"line1": "1 35223U 99025DQF 25359.92308503  .00008950  00000+0  82018-3 0  9997", "line2": "2 35223  98.9742 344.1602 0127006 284.0839  74.6286 14.89205778940788"}}, "geometry": {"type": "Point", "coordinates": [-11.657313382605565, -19.86506874575992]}}, {"type": "Feature", "properties": {"norad_id": 35229, "name": "FENGYUN 1C DEB", "group": "fengyun-1c-debris", "lat": 61.914341998026984, "lon": -83.7886896432331, "alt_km": 664.4565779674513, "timestamp": "2025-12-26T17:24:55.007251+00:00", "meta": {"OBJECT_NAME": "FENGYUN 1C DEB", "OBJECT_ID": "1999-025DQM", "EPOCH": "2025-12-21T00:28:03.999936", "MEAN_MOTION": 14.6104888, "ECCENTRICITY": 0.00465106, "INCLINATION": 98.458, "RA_OF_ASC_NODE": 74.1903, "ARG_OF_PERICENTER": 189.9892, "MEAN_ANOMALY": 170.0388, "EPHEMERIS_TYPE": 0, "CLASSIFICATION_TYPE": "U", "NORAD_CAT_ID": 35229, "ELEMENT_SET_NO": 999, "REV_AT_EPOCH": 64627, "BSTAR": 0.0032249287, "MEAN_MOTION_DOT": 0.00016061, "MEAN_MOTION_DDOT": 0}, "tle": {"line1": "1 35229U 99025DQM 25355.01949074  .00016061  00000+0  32249-2 0  9995", "line2": "2 35229  98.4580  74.1903 0046510 189.9892 170.0388 14.61048880646275"}}, "geometry": {"type": "Point", "coordinates": [-83.7886896432331, 61.914341998026984]}}, {"type": "Feature", "properties": {"norad_id": 35231, "name": "FENGYUN 1C DEB", "group": "fengyun-1c-debris", "lat": -81.22426072674654, "lon": 139.77566064516262, "alt_km": 871.138083570333, "timestamp": "2025-12-26T17:24:55.007261+00:00", "meta": {"OBJECT_NAME": "FENGYUN 1C DEB", "OBJECT_ID": "1999-025DQP", "EPOCH": "2025-12-20T02:16:05.023776", "MEAN_MOTION": 14.14529124, "ECCENTRICITY": 0.00379148, "INCLINATION": 98.7195, "RA_OF_ASC_NODE": 37.0855, "ARG_OF_PERICENTER": 64.705, "MEAN_ANOMALY": 295.8044, "EPHEMERIS_TYPE": 0, "CLASSIFICATION_TYPE": "U", "NORAD_CAT_ID": 35231, "ELEMENT_SET_NO": 999, "REV_AT_EPOCH": 91606, "BSTAR": 2.8184415e-05, "MEAN_MOTION_DOT": 1.2e-07, "MEAN_MOTION_DDOT": 0}, "tle": {"line1": "1 35231U 99025DQP 25354.09450259  .00000012  00000+0  28184-4 0  9991", "line2": "2 35231  98.7195  37.0855 0037914  64.7050 295.8044 14.14529124916066"}}, "geometry": {"type": "Point", "coordinates": [139.77566064516262, -81.22426072674654]}}, {"type": "Feature", "properties": {"norad_id": 35233, "name": "FENGYUN 1C DEB", "group": "fengyun-1c-debris", "lat": -73.50164201107151, "lon": 131.6507426424757, "alt_km": 746.2745053849058, "timestamp": "2025-12-26T17:24:55.007271+00:00", "meta": {"OBJECT_NAME": "FENGYUN 1C DEB", "OBJECT_ID": "1999-025DQR", "EPOCH": "2025-12-24T18:11:08.638368", "MEAN_MOTION": 14.42003835, "ECCENTRICITY": 0.00419004, "INCLINATION": 98.7704, "RA_OF_ASC_NODE": 98.2147, "ARG_OF_PERICENTER": 225.0912, "MEAN_ANOMALY": 288.5276, "EPHEMERIS_TYPE": 0, "CLASSIFICATION_TYPE": "U", "NORAD_CAT_ID": 35233, "ELEMENT_SET_NO": 999, "REV_AT_EPOCH": 91349, "BSTAR": 0.0019879315, "MEAN_MOTION_DOT": 6.549e-05, "MEAN_MOTION_DDOT": 0}, "tle": {"line1": "1 35233U 99025DQR 25358.75773887  .00006549  00000+0  19879-2 0  9995", "line2": "2 35233  98.7704  98.2147 0041900 225.0912 288.5276 14.42003835913493"}}, "geometry": {"type": "Point", "coordinates": [131.6507426424757, -73.50164201107151]}}, {"type": "Feature", "properties": {"norad_id": 35234, "name": "FENGYUN 1C DEB", "group": "fengyun-1c-debris", "lat": 24.86318134073382, "lon": -147.81945959082904, "alt_km": 642.0777969333985, "timestamp": "2025-12-26T17:24:55.007281+00:00", "meta": {"OBJECT_NAME": "FENGYUN 1C DEB", "OBJECT_ID": "1999-025DQS", "EPOCH": "2025-12-22T19:18:28.251360", "MEAN_MOTION": 14.65612887, "ECCENTRICITY": 0.01001329, "INCLINATION": 98.0674, "RA_OF_ASC_NODE": 24.5617, "ARG_OF_PERICENTER": 230.4813, "MEAN_ANOMALY": 128.7507, "EPHEMERIS_TYPE": 0, "CLASSIFICATION_TYPE": "U", "NORAD_CAT_ID": 35234, "ELEMENT_SET_NO": 999, "REV_AT_EPOCH": 94503, "BSTAR": 0.00055440323, "MEAN_MOTION_DOT": 3.19e-05, "MEAN_MOTION_DDOT": 0}, "tle": {"line1": "1 35234U 99025DQS 25356.80449365  .00003190  00000+0  55440-3 0  9995", "line2": "2 35234  98.0674  24.5617 0100132 230.4813 128.7507 14.65612887945035"}}, "geometry": {"type": "Point", "coordinates": [-147.81945959082904, 24.86318134073382]}}, {"type": "Feature", "properties": {"norad_id": 35239, "name": "FENGYUN 1C DEB", "group": "fengyun-1c-debris", "lat": 20.183950113428086, "lon": 157.44067108276786, "alt_km": 883.8324385033138, "timestamp": "2025-12-26T17:24:55.007291+00:00", "meta": {"OBJECT_NAME": "FENGYUN 1C DEB", "OBJECT_ID": "1999-025DQX", "EPOCH": "2025-12-24T16:12:58.842720", "MEAN_MOTION": 13.69244203, "ECCENTRICITY": 0.0229581, "INCLINATION": 99.2658, "RA_OF_ASC_NODE": 158.9085, "ARG_OF_PERICENTER": 339.2403, "MEAN_ANOMALY": 19.9533, "EPHEMERIS_TYPE": 0, "CLASSIFICATION_TYPE": "U", "NORAD_CAT_ID": 35239, "ELEMENT_SET_NO": 999, "REV_AT_EPOCH": 58294, "BSTAR": 0.001146952, "MEAN_MOTION_DOT": 1.153e-05, "MEAN_MOTION_DDOT": 0}, "tle": {"line1": "1 35239U 99025DQX 25358.67568105  .00001153  00000+0  11470-2 0  9992", "line2": "2 35239  99.2658 158.9085 0229581 339.2403  19.9533 13.69244203582942"}}, "geometry": {"type": "Point", "coordinates": [157.44067108276786, 20.183950113428086]}}]}